SEEDS II (CO-66)        
1 32791U 08021J   26068.92109284  .00023758  00000+0  84213-3 0  9995
2 32791  97.7519  62.3611 0001448 359.2618   0.8619 15.29097235972108
STARLINK-35611          
1 66427U 25259F   26068.83309098  .00027756  00000+0  10140-2 0  9994
2 66427  43.0003 273.5007 0001806 274.1429  85.9216 15.27592891 19511
